ORBCOMM FM37 [-]        
1 33064U 08031E   24092.54946675  .00002496  00000+0  38678-3 0  9996
2 33064  48.4392 277.3508 0006272 281.5888 119.2587 14.76153829848725
ORBCOMM FM40 [-]        
1 33065U 08031F   24092.59372758  .00002994  00000+0  44480-3 0  9998
2 33065  48.4412 266.8828 0007573 290.1790 184.0609 14.77433776848762
VESSELSAT 1 [-]         
1 37840U 11058C   24092.53924895  .00000445  00000+0  98402-4 0  9998
2 37840  19.9614 245.8426 0013758   9.7353 350.3316 14.11132411643841
ORBCOMM FM109 [+]       
1 40086U 14040A   24092.61225989  .00000997  00000+0  25960-3 0  9995
2 40086  47.0038 299.1114 0001366  94.4619 265.6422 14.56438803516650
ORBCOMM FM107 [+]       
1 40087U 14040B   24092.57806988  .00001085  00000+0  27923-3 0  9995
2 40087  47.0053 300.2339 0000907  38.8426 321.2524 14.56442961516729
ORBCOMM FM106 [-]       
1 40088U 14040C   24092.57340170  .00001549  00000+0  30705-3 0  9999
2 40088  47.0589 156.2600 0017831 181.2979 178.7868 14.66814652518587
ORBCOMM FM111 [-]       
1 40089U 14040D   24092.31482399  .00003416  00000+0  45386-3 0  9998
2 40089  47.0043  63.1165 0033544 244.7190 115.0228 14.81434201524603
ORBCOMM FM104 [-]       
1 40090U 14040E   24092.37246917  .00001049  00000+0  27966-3 0  9994
2 40090  47.0064 329.6837 0017188 346.0563  13.9845 14.54995460516241
